{
  "type": "FeatureCollection",
  "features": [
    {
      "type": "Feature",
      "properties": {
        "norad_id": 67061,
        "name": "HULIANWANG DIGUI-121",
        "group": "last-30-days",
        "lat": 24.283158252350262,
        "lon": -5.632486003424804,
        "alt_km": 809.0963772275982,
        "timestamp": "2025-12-22T05:49:02.189183+00:00",
        "meta_object_name": "HULIANWANG DIGUI-121",
        "meta_object_id": "2025-295C",
        "meta_epoch": "2025-12-21T11:09:08.115264",
        "meta_mean_motion": 14.2503841,
        "meta_eccentricity": 0.00133895,
        "meta_inclination": 50.0022,
        "meta_ra_of_asc_node": 335.3907,
        "meta_arg_of_pericenter": 276.5317,
        "meta_mean_anomaly": 83.4072,
        "meta_ephemeris_type": 0,
        "meta_classification_type": "U",
        "meta_norad_cat_id": 67061,
        "meta_element_set_no": 999,
        "meta_rev_at_epoch": 136,
        "meta_bstar": 2.6356e-07,
        "meta_mean_motion_dot": -1.59e-06,
        "meta_mean_motion_ddot": 0,
        "tle_line1": "1 67061U 25295C   25355.46467726 -.00000159  00000+0  26356-6 0  9998",
        "tle_line2": "2 67061  50.0022 335.3907 0013389 276.5317  83.4072 14.25038410  1368"
      },
      "geometry": {
        "type": "Point",
        "coordinates": [
          -5.632486003424804,
          24.283158252350262
        ]
      }
    },
    {
      "type": "Feature",
      "properties": {
        "norad_id": 67062,
        "name": "HULIANWANG DIGUI-122",
        "group": "last-30-days",
        "lat": 27.25030299896831,
        "lon": -2.271120979798144,
        "alt_km": 805.644292149017,
        "timestamp": "2025-12-22T05:49:02.189193+00:00",
        "meta_object_name": "HULIANWANG DIGUI-122",
        "meta_object_id": "2025-295D",
        "meta_epoch": "2025-12-21T11:08:30.884640",
        "meta_mean_motion": 14.25756317,
        "meta_eccentricity": 0.00131646,
        "meta_inclination": 50.0054,
        "meta_ra_of_asc_node": 335.3982,
        "meta_arg_of_pericenter": 284.0254,
        "meta_mean_anomaly": 75.9196,
        "meta_ephemeris_type": 0,
        "meta_classification_type": "U",
        "meta_norad_cat_id": 67062,
        "meta_element_set_no": 999,
        "meta_rev_at_epoch": 136,
        "meta_bstar": 8.5481235e-05,
        "meta_mean_motion_dot": 4.4e-07,
        "meta_mean_motion_ddot": 0,
        "tle_line1": "1 67062U 25295D   25355.46424635  .00000044  00000+0  85481-4 0  9995",
        "tle_line2": "2 67062  50.0054 335.3982 0013164 284.0254  75.9196 14.25756317  1368"
      },
      "geometry": {
        "type": "Point",
        "coordinates": [
          -2.271120979798144,
          27.25030299896831
        ]
      }
    },
    {
      "type": "Feature",
      "properties": {
        "norad_id": 67063,
        "name": "HULIANWANG DIGUI-123",
        "group": "last-30-days",
        "lat": 30.569812842888805,
        "lon": 1.831010945863302,
        "alt_km": 805.3239615621223,
        "timestamp": "2025-12-22T05:49:02.189203+00:00",
        "meta_object_name": "HULIANWANG DIGUI-123",
        "meta_object_id": "2025-295E",
        "meta_epoch": "2025-12-21T12:48:10.086912",
        "meta_mean_motion": 14.25889184,
        "meta_eccentricity": 0.0012477,
        "meta_inclination": 50.006,
        "meta_ra_of_asc_node": 335.1,
        "meta_arg_of_pericenter": 283.4462,
        "meta_mean_anomaly": 76.5062,
        "meta_ephemeris_type": 0,
        "meta_classification_type": "U",
        "meta_norad_cat_id": 67063,
        "meta_element_set_no": 999,
        "meta_rev_at_epoch": 137,
        "meta_bstar": 8.262e-05,
        "meta_mean_motion_dot": 3.8e-07,
        "meta_mean_motion_ddot": 0,
        "tle_line1": "1 67063U 25295E   25355.53345008  .00000038  00000+0  82620-4 0  9995",
        "tle_line2": "2 67063  50.0060 335.1000 0012477 283.4462  76.5062 14.25889184  1374"
      },
      "geometry": {
        "type": "Point",
        "coordinates": [
          1.831010945863302,
          30.569812842888805
        ]
      }
    },
    {
      "type": "Feature",
      "properties": {
        "norad_id": 67064,
        "name": "HULIANWANG DIGUI-124",
        "group": "last-30-days",
        "lat": 32.03478524839632,
        "lon": 3.7753687412121213,
        "alt_km": 805.7768533781909,
        "timestamp": "2025-12-22T05:49:02.189213+00:00",
        "meta_object_name": "HULIANWANG DIGUI-124",
        "meta_object_id": "2025-295F",
        "meta_epoch": "2025-12-21T12:47:35.075904",
        "meta_mean_motion": 14.25949632,
        "meta_eccentricity": 0.0012098,
        "meta_inclination": 50.0035,
        "meta_ra_of_asc_node": 335.0839,
        "meta_arg_of_pericenter": 278.0655,
        "meta_mean_anomaly": 81.8887,
        "meta_ephemeris_type": 0,
        "meta_classification_type": "U",
        "meta_norad_cat_id": 67064,
        "meta_element_set_no": 999,
        "meta_rev_at_epoch": 137,
        "meta_bstar": -0.00020163,
        "meta_mean_motion_dot": -6.45e-06,
        "meta_mean_motion_ddot": 0,
        "tle_line1": "1 67064U 25295F   25355.53304486 -.00000645  00000+0 -20163-3 0  9990",
        "tle_line2": "2 67064  50.0035 335.0839 0012098 278.0655  81.8887 14.25949632  1378"
      },
      "geometry": {
        "type": "Point",
        "coordinates": [
          3.7753687412121213,
          32.03478524839632
        ]
      }
    },
    {
      "type": "Feature",
      "properties": {
        "norad_id": 67065,
        "name": "HULIANWANG DIGUI-125",
        "group": "last-30-days",
        "lat": 32.15447600155869,
        "lon": 3.940716184051782,
        "alt_km": 805.0162647573397,
        "timestamp": "2025-12-22T05:49:02.189223+00:00",
        "meta_object_name": "HULIANWANG DIGUI-125",
        "meta_object_id": "2025-295G",
        "meta_epoch": "2025-12-21T11:06:37.393920",
        "meta_mean_motion": 14.25954731,
        "meta_eccentricity": 0.00122684,
        "meta_inclination": 50.0011,
        "meta_ra_of_asc_node": 335.378,
        "meta_arg_of_pericenter": 283.9385,
        "meta_mean_anomaly": 76.0164,
        "meta_ephemeris_type": 0,
        "meta_classification_type": "U",
        "meta_norad_cat_id": 67065,
        "meta_element_set_no": 999,
        "meta_rev_at_epoch": 136,
        "meta_bstar": 7.9035453e-05,
        "meta_mean_motion_dot": 3e-07,
        "meta_mean_motion_ddot": 0,
        "tle_line1": "1 67065U 25295G   25355.46293280  .00000030  00000+0  79035-4 0  9991",
        "tle_line2": "2 67065  50.0011 335.3780 0012268 283.9385  76.0164 14.25954731  1364"
      },
      "geometry": {
        "type": "Point",
        "coordinates": [
          3.940716184051782,
          32.15447600155869
        ]
      }
    },
    {
      "type": "Feature",
      "properties": {
        "norad_id": 67066,
        "name": "HULIANWANG DIGUI-126",
        "group": "last-30-days",
        "lat": 35.54477647979917,
        "lon": 8.93440485665805,
        "alt_km": 804.7294938882815,
        "timestamp": "2025-12-22T05:49:02.189233+00:00",
        "meta_object_name": "HULIANWANG DIGUI-126",
        "meta_object_id": "2025-295H",
        "meta_epoch": "2025-12-21T19:29:45.742272",
        "meta_mean_motion": 14.26097849,
        "meta_eccentricity": 0.0011434,
        "meta_inclination": 50.0013,
        "meta_ra_of_asc_node": 333.8916,
        "meta_arg_of_pericenter": 282.3076,
        "meta_mean_anomaly": 77.6558,
        "meta_ephemeris_type": 0,
        "meta_classification_type": "U",
        "meta_norad_cat_id": 67066,
        "meta_element_set_no": 999,
        "meta_rev_at_epoch": 141,
        "meta_bstar": 7.1485e-05,
        "meta_mean_motion_dot": 1.2e-07,
        "meta_mean_motion_ddot": 0,
        "tle_line1": "1 67066U 25295H   25355.81233498  .00000012  00000+0  71485-4 0  9997",
        "tle_line2": "2 67066  50.0013 333.8916 0011434 282.3076  77.6558 14.26097849  1414"
      },
      "geometry": {
        "type": "Point",
        "coordinates": [
          8.93440485665805,
          35.54477647979917
        ]
      }
    },
    {
      "type": "Feature",
      "properties": {
        "norad_id": 67067,
        "name": "HULIANWANG DIGUI-127",
        "group": "last-30-days",
        "lat": 38.60876895873421,
        "lon": 14.16693814591249,
        "alt_km": 803.6552919324886,
        "timestamp": "2025-12-22T05:49:02.189246+00:00",
        "meta_object_name": "HULIANWANG DIGUI-127",
        "meta_object_id": "2025-295J",
        "meta_epoch": "2025-12-21T19:28:22.761984",
        "meta_mean_motion": 14.26250459,
        "meta_eccentricity": 0.0010863,
        "meta_inclination": 50.0053,
        "meta_ra_of_asc_node": 333.8944,
        "meta_arg_of_pericenter": 286.1065,
        "meta_mean_anomaly": 73.8653,
        "meta_ephemeris_type": 0,
        "meta_classification_type": "U",
        "meta_norad_cat_id": 67067,
        "meta_element_set_no": 999,
        "meta_rev_at_epoch": 141,
        "meta_bstar": -0.00027402,
        "meta_mean_motion_dot": -8.22e-06,
        "meta_mean_motion_ddot": 0,
        "tle_line1": "1 67067U 25295J   25355.81137456 -.00000822  00000+0 -27402-3 0  9995",
        "tle_line2": "2 67067  50.0053 333.8944 0010863 286.1065  73.8653 14.26250459  1417"
      },
      "geometry": {
        "type": "Point",
        "coordinates": [
          14.16693814591249,
          38.60876895873421
        ]
      }
    }
  ]
}